title,hostname,address,city,state
voluptate consequatur quas,Lonnie,88791 Wolff Heights,South Karina,Wisconsin
minima dolor consequatur,Watson,12977 Thompson Burg,Schummburgh,Arizona
ut iusto ex,Myah,1403 Cummings Crossing,Yostberg,Oregon
saepe doloremque quas,Viva,2946 Toby Drive,North Percival,Iowa
consequatur animi possimus,Jaren,51439 Bartell Cape,Devonport,Connecticut
quia commodi rerum,Ophelia,15173 Heidenreich Spur,Port Raegantown,West Virginia
culpa impedit nemo,King,94263 Kattie Oval,Lake Zoilaburgh,Ohio
sit impedit alias,Elvera,80439 Coy Shores,Lake Marietta,New Mexico
aperiam non minus,Rollin,87781 Eveline Oval,Cronafort,Delaware
explicabo dolor hic,Mose,6216 Gusikowski Branch,Lake Marielleland,Illinois
maxime ut dolor,Adaline,454 Jenkins Prairie,Mittiechester,Wyoming
dolor vitae totam,Greg,8205 Gisselle Knolls,Port Idellmouth,Alaska
et sed et,Leopoldo,4989 Murray Stravenue,West Jose,Maryland
voluptatem qui voluptatem,Erin,71973 Telly Manors,Quincyport,Texas
et enim porro,Turner,821 Gutkowski Wall,Ewellland,North Dakota
voluptatem ratione adipisci,Yasmine,8826 Breanna Tunnel,New Trudie,Rhode Island
nihil quisquam hic,Abby,44734 Wuckert Ranch,Shanahanchester,Mississippi
eveniet et et,Bruce,085 Macejkovic Dam,East Thalia,Virginia
iste vitae voluptatum,Linnie,567 Bernie Isle,South Tiana,Vermont
maxime minima placeat,Gaylord,968 Fisher Park,Ankundingside,Hawaii
